{
  "type": "FeatureCollection",
  "features": [
    {
      "type": "Feature",
      "properties": {
        "norad_id": 34464,
        "name": "COSMOS 2251 DEB",
        "group": "cosmos-2251-debris",
        "lat": 23.224956513970042,
        "lon": 66.92897844487655,
        "alt_km": 488.4145187968652,
        "timestamp": "2025-12-21T09:37:23.049305+00:00",
        "meta_object_name": "COSMOS 2251 DEB",
        "meta_object_id": "1993-036TH",
        "meta_epoch": "2025-12-21T04:48:13.140576",
        "meta_mean_motion": 15.28159123,
        "meta_eccentricity": 0.0014614,
        "meta_inclination": 73.9904,
        "meta_ra_of_asc_node": 60.2787,
        "meta_arg_of_pericenter": 242.8332,
        "meta_mean_anomaly": 117.138,
        "meta_ephemeris_type": 0,
        "meta_classification_type": "U",
        "meta_norad_cat_id": 34464,
        "meta_element_set_no": 999,
        "meta_rev_at_epoch": 89969,
        "meta_bstar": 0.0019349,
        "meta_mean_motion_dot": 0.00053635,
        "meta_mean_motion_ddot": 0,
        "tle_line1": "1 34464U 93036TH  25355.20015209  .00053635  00000+0  19349-2 0  9990",
        "tle_line2": "2 34464  73.9904  60.2787 0014614 242.8332 117.1380 15.28159123899694"
      },
      "geometry": {
        "type": "Point",
        "coordinates": [
          66.92897844487655,
          23.224956513970042
        ]
      }
    },
    {
      "type": "Feature",
      "properties": {
        "norad_id": 34468,
        "name": "COSMOS 2251 DEB",
        "group": "cosmos-2251-debris",
        "lat": -73.03082290750183,
        "lon": 31.008469391698974,
        "alt_km": 693.972397530355,
        "timestamp": "2025-12-21T09:37:23.049314+00:00",
        "meta_object_name": "COSMOS 2251 DEB",
        "meta_object_id": "1993-036TM",
        "meta_epoch": "2025-12-20T17:25:29.243424",
        "meta_mean_motion": 14.47643995,
        "meta_eccentricity": 0.00763141,
        "meta_inclination": 74.0131,
        "meta_ra_of_asc_node": 102.2423,
        "meta_arg_of_pericenter": 245.5517,
        "meta_mean_anomaly": 113.7668,
        "meta_ephemeris_type": 0,
        "meta_classification_type": "U",
        "meta_norad_cat_id": 34468,
        "meta_element_set_no": 999,
        "meta_rev_at_epoch": 88577,
        "meta_bstar": 0.00023981218,
        "meta_mean_motion_dot": 8.87e-06,
        "meta_mean_motion_ddot": 0,
        "tle_line1": "1 34468U 93036TM  25354.72603291  .00000887  00000+0  23981-3 0  9993",
        "tle_line2": "2 34468  74.0131 102.2423 0076314 245.5517 113.7668 14.47643995885776"
      },
      "geometry": {
        "type": "Point",
        "coordinates": [
          31.008469391698974,
          -73.03082290750183
        ]
      }
    },
    {
      "type": "Feature",
      "properties": {
        "norad_id": 34472,
        "name": "COSMOS 2251 DEB",
        "group": "cosmos-2251-debris",
        "lat": 47.32556906916629,
        "lon": 101.92848082805256,
        "alt_km": 1224.4815295425733,
        "timestamp": "2025-12-21T09:37:23.049325+00:00",
        "meta_object_name": "COSMOS 2251 DEB",
        "meta_object_id": "1993-036TR",
        "meta_epoch": "2025-12-20T15:50:38.760576",
        "meta_mean_motion": 13.7034199,
        "meta_eccentricity": 0.03278524,
        "meta_inclination": 74.0846,
        "meta_ra_of_asc_node": 85.1186,
        "meta_arg_of_pericenter": 214.408,
        "meta_mean_anomaly": 143.5421,
        "meta_ephemeris_type": 0,
        "meta_classification_type": "U",
        "meta_norad_cat_id": 34472,
        "meta_element_set_no": 999,
        "meta_rev_at_epoch": 83835,
        "meta_bstar": 0.0004736797,
        "meta_mean_motion_dot": 5.89e-06,
        "meta_mean_motion_ddot": 0,
        "tle_line1": "1 34472U 93036TR  25354.66017084  .00000589  00000+0  47368-3 0  9994",
        "tle_line2": "2 34472  74.0846  85.1186 0327852 214.4080 143.5421 13.70341990838350"
      },
      "geometry": {
        "type": "Point",
        "coordinates": [
          101.92848082805256,
          47.32556906916629
        ]
      }
    },
    {
      "type": "Feature",
      "properties": {
        "norad_id": 34474,
        "name": "COSMOS 2251 DEB",
        "group": "cosmos-2251-debris",
        "lat": -46.537631018777084,
        "lon": 148.58628217334214,
        "alt_km": 1006.8476512189845,
        "timestamp": "2025-12-21T09:37:23.049335+00:00",
        "meta_object_name": "COSMOS 2251 DEB",
        "meta_object_id": "1993-036TT",
        "meta_epoch": "2025-12-20T20:43:02.399808",
        "meta_mean_motion": 14.06471894,
        "meta_eccentricity": 0.0199069,
        "meta_inclination": 74.0784,
        "meta_ra_of_asc_node": 311.9955,
        "meta_arg_of_pericenter": 23.8338,
        "meta_mean_anomaly": 4.4477,
        "meta_ephemeris_type": 0,
        "meta_classification_type": "U",
        "meta_norad_cat_id": 34474,
        "meta_element_set_no": 999,
        "meta_rev_at_epoch": 85623,
        "meta_bstar": 0.0017512,
        "meta_mean_motion_dot": 3.442e-05,
        "meta_mean_motion_ddot": 0,
        "tle_line1": "1 34474U 93036TT  25354.86322222  .00003442  00000+0  17512-2 0  9999",
        "tle_line2": "2 34474  74.0784 311.9955 0199069  23.8338   4.4477 14.06471894856232"
      },
      "geometry": {
        "type": "Point",
        "coordinates": [
          148.58628217334214,
          -46.537631018777084
        ]
      }
    },
    {
      "type": "Feature",
      "properties": {
        "norad_id": 34476,
        "name": "COSMOS 2251 DEB",
        "group": "cosmos-2251-debris",
        "lat": 19.67696693439356,
        "lon": -117.98236198949472,
        "alt_km": 1090.5899378137237,
        "timestamp": "2025-12-21T09:37:23.049345+00:00",
        "meta_object_name": "COSMOS 2251 DEB",
        "meta_object_id": "1993-036TV",
        "meta_epoch": "2025-12-19T15:07:53.916960",
        "meta_mean_motion": 13.82094314,
        "meta_eccentricity": 0.0321638,
        "meta_inclination": 74.0055,
        "meta_ra_of_asc_node": 70.8879,
        "meta_arg_of_pericenter": 289.0132,
        "meta_mean_anomaly": 67.6405,
        "meta_ephemeris_type": 0,
        "meta_classification_type": "U",
        "meta_norad_cat_id": 34476,
        "meta_element_set_no": 999,
        "meta_rev_at_epoch": 83733,
        "meta_bstar": 0.0025746,
        "meta_mean_motion_dot": 4.089e-05,
        "meta_mean_motion_ddot": 0,
        "tle_line1": "1 34476U 93036TV  25353.63048515  .00004089  00000+0  25746-2 0  9991",
        "tle_line2": "2 34476  74.0055  70.8879 0321638 289.0132  67.6405 13.82094314837331"
      },
      "geometry": {
        "type": "Point",
        "coordinates": [
          -117.98236198949472,
          19.67696693439356
        ]
      }
    },
    {
      "type": "Feature",
      "properties": {
        "norad_id": 34477,
        "name": "COSMOS 2251 DEB",
        "group": "cosmos-2251-debris",
        "lat": -45.221292786083275,
        "lon": -110.17155682887822,
        "alt_km": 656.1220135209987,
        "timestamp": "2025-12-21T09:37:23.049355+00:00",
        "meta_object_name": "COSMOS 2251 DEB",
        "meta_object_id": "1993-036TW",
        "meta_epoch": "2025-12-20T21:51:33.043968",
        "meta_mean_motion": 14.56915084,
        "meta_eccentricity": 0.0076794,
        "meta_inclination": 73.9788,
        "meta_ra_of_asc_node": 53.9303,
        "meta_arg_of_pericenter": 239.5704,
        "meta_mean_anomaly": 298.3196,
        "meta_ephemeris_type": 0,
        "meta_classification_type": "U",
        "meta_norad_cat_id": 34477,
        "meta_element_set_no": 999,
        "meta_rev_at_epoch": 88744,
        "meta_bstar": 0.00050338,
        "meta_mean_motion_dot": 2.32e-05,
        "meta_mean_motion_ddot": 0,
        "tle_line1": "1 34477U 93036TW  25354.91079912  .00002320  00000+0  50338-3 0  9991",
        "tle_line2": "2 34477  73.9788  53.9303 0076794 239.5704 298.3196 14.56915084887447"
      },
      "geometry": {
        "type": "Point",
        "coordinates": [
          -110.17155682887822,
          -45.221292786083275
        ]
      }
    },
    {
      "type": "Feature",
      "properties": {
        "norad_id": 34478,
        "name": "COSMOS 2251 DEB",
        "group": "cosmos-2251-debris",
        "lat": -73.99855270275566,
        "lon": -104.65748448720333,
        "alt_km": 535.8167813518703,
        "timestamp": "2025-12-21T09:37:23.049366+00:00",
        "meta_object_name": "COSMOS 2251 DEB",
        "meta_object_id": "1993-036TX",
        "meta_epoch": "2025-12-21T04:12:46.484928",
        "meta_mean_motion": 15.08639002,
        "meta_eccentricity": 0.0034024,
        "meta_inclination": 74.0409,
        "meta_ra_of_asc_node": 349.5203,
        "meta_arg_of_pericenter": 208.4525,
        "meta_mean_anomaly": 276.406,
        "meta_ephemeris_type": 0,
        "meta_classification_type": "U",
        "meta_norad_cat_id": 34478,
        "meta_element_set_no": 999,
        "meta_rev_at_epoch": 89100,
        "meta_bstar": 0.0018985,
        "meta_mean_motion_dot": 0.00030215,
        "meta_mean_motion_ddot": 0,
        "tle_line1": "1 34478U 93036TX  25355.17553802  .00030215  00000+0  18985-2 0  9991",
        "tle_line2": "2 34478  74.0409 349.5203 0034024 208.4525 276.4060 15.08639002891004"
      },
      "geometry": {
        "type": "Point",
        "coordinates": [
          -104.65748448720333,
          -73.99855270275566
        ]
      }
    }
  ]
}